<?xml version="1.0" encoding="UTF-8"?>
<ndm xmlns:xsi="https://www.w3.org/2001/XMLSchema-instance" xsi:noNamespaceSchemaLocation="https://sanaregistry.org/r/ndmxml/ndmxml-1.0-master.xsd">
<omm id="CCSDS_OMM_VERS" version="2.0">
<header><CREATION_DATE/><ORIGINATOR/></header><body><segment><metadata><OBJECT_NAME>STARLINK-1634</OBJECT_NAME><OBJECT_ID>2020-057AM</OBJECT_ID><CENTER_NAME>EARTH</CENTER_NAME><REF_FRAME>TEME</REF_FRAME><TIME_SYSTEM>UTC</TIME_SYSTEM><MEAN_ELEMENT_THEORY>SGP4</MEAN_ELEMENT_THEORY></metadata><data><meanElements><EPOCH>2020-09-09T12:00:00.999648</EPOCH><MEAN_MOTION>15.62750069</MEAN_MOTION><ECCENTRICITY>.0001360</ECCENTRICITY><INCLINATION>52.9986</INCLINATION><RA_OF_ASC_NODE>332.7534</RA_OF_ASC_NODE><ARG_OF_PERICENTER>56.4442</ARG_OF_PERICENTER><MEAN_ANOMALY>48.8099</MEAN_ANOMALY></meanElements><tleParameters><EPHEMERIS_TYPE>0</EPHEMERIS_TYPE><CLASSIFICATION_TYPE>U</CLASSIFICATION_TYPE><NORAD_CAT_ID>46152</NORAD_CAT_ID><ELEMENT_SET_NO>999</ELEMENT_SET_NO><REV_AT_EPOCH>412</REV_AT_EPOCH><BSTAR>.85897E-5</BSTAR><MEAN_MOTION_DOT>2.52E-6</MEAN_MOTION_DOT><MEAN_MOTION_DDOT>0</MEAN_MOTION_DDOT></tleParameters></data></segment></body></omm>
<omm id="CCSDS_OMM_VERS" version="2.0">
<header><CREATION_DATE/><ORIGINATOR/></header><body><segment><metadata><OBJECT_NAME>STARLINK-1636</OBJECT_NAME><OBJECT_ID>2020-057AN</OBJECT_ID><CENTER_NAME>EARTH</CENTER_NAME><REF_FRAME>TEME</REF_FRAME><TIME_SYSTEM>UTC</TIME_SYSTEM><MEAN_ELEMENT_THEORY>SGP4</MEAN_ELEMENT_THEORY></metadata><data><meanElements><EPOCH>2020-09-09T12:00:00.999648</EPOCH><MEAN_MOTION>15.72215464</MEAN_MOTION><ECCENTRICITY>.0001191</ECCENTRICITY><INCLINATION>52.9973</INCLINATION><RA_OF_ASC_NODE>331.5018</RA_OF_ASC_NODE><ARG_OF_PERICENTER>77.4562</ARG_OF_PERICENTER><MEAN_ANOMALY>270.6503</MEAN_ANOMALY></meanElements><tleParameters><EPHEMERIS_TYPE>0</EPHEMERIS_TYPE><CLASSIFICATION_TYPE>U</CLASSIFICATION_TYPE><NORAD_CAT_ID>46153</NORAD_CAT_ID><ELEMENT_SET_NO>999</ELEMENT_SET_NO><REV_AT_EPOCH>413</REV_AT_EPOCH><BSTAR>-.27019E-4</BSTAR><MEAN_MOTION_DOT>-4.246E-5</MEAN_MOTION_DOT><MEAN_MOTION_DDOT>0</MEAN_MOTION_DDOT></tleParameters></data></segment></body></omm>
<omm id="CCSDS_OMM_VERS" version="2.0">
<header><CREATION_DATE/><ORIGINATOR/></header><body><segment><metadata><OBJECT_NAME>STARLINK-1642</OBJECT_NAME><OBJECT_ID>2020-057AP</OBJECT_ID><CENTER_NAME>EARTH</CENTER_NAME><REF_FRAME>TEME</REF_FRAME><TIME_SYSTEM>UTC</TIME_SYSTEM><MEAN_ELEMENT_THEORY>SGP4</MEAN_ELEMENT_THEORY></metadata><data><meanElements><EPOCH>2020-09-09T12:00:00.999648</EPOCH><MEAN_MOTION>15.72221371</MEAN_MOTION><ECCENTRICITY>.0000819</ECCENTRICITY><INCLINATION>52.9974</INCLINATION><RA_OF_ASC_NODE>331.4883</RA_OF_ASC_NODE><ARG_OF_PERICENTER>47.3812</ARG_OF_PERICENTER><MEAN_ANOMALY>306.8853</MEAN_ANOMALY></meanElements><tleParameters><EPHEMERIS_TYPE>0</EPHEMERIS_TYPE><CLASSIFICATION_TYPE>U</CLASSIFICATION_TYPE><NORAD_CAT_ID>46154</NORAD_CAT_ID><ELEMENT_SET_NO>999</ELEMENT_SET_NO><REV_AT_EPOCH>413</REV_AT_EPOCH><BSTAR>-.28311E-4</BSTAR><MEAN_MOTION_DOT>-4.42E-5</MEAN_MOTION_DOT><MEAN_MOTION_DDOT>0</MEAN_MOTION_DDOT></tleParameters></data></segment></body></omm>
<omm id="CCSDS_OMM_VERS" version="2.0">
<header><CREATION_DATE/><ORIGINATOR/></header><body><segment><metadata><OBJECT_NAME>STARLINK-1667</OBJECT_NAME><OBJECT_ID>2020-057AQ</OBJECT_ID><CENTER_NAME>EARTH</CENTER_NAME><REF_FRAME>TEME</REF_FRAME><TIME_SYSTEM>UTC</TIME_SYSTEM><MEAN_ELEMENT_THEORY>SGP4</MEAN_ELEMENT_THEORY></metadata><data><meanElements><EPOCH>2020-09-09T06:00:00.999648</EPOCH><MEAN_MOTION>15.66242588</MEAN_MOTION><ECCENTRICITY>.0001149</ECCENTRICITY><INCLINATION>52.9990</INCLINATION><RA_OF_ASC_NODE>333.5630</RA_OF_ASC_NODE><ARG_OF_PERICENTER>62.6904</ARG_OF_PERICENTER><MEAN_ANOMALY>274.4793</MEAN_ANOMALY></meanElements><tleParameters><EPHEMERIS_TYPE>0</EPHEMERIS_TYPE><CLASSIFICATION_TYPE>U</CLASSIFICATION_TYPE><NORAD_CAT_ID>46155</NORAD_CAT_ID><ELEMENT_SET_NO>999</ELEMENT_SET_NO><REV_AT_EPOCH>177</REV_AT_EPOCH><BSTAR>.21929E-3</BSTAR><MEAN_MOTION_DOT>2.2563E-4</MEAN_MOTION_DOT><MEAN_MOTION_DDOT>0</MEAN_MOTION_DDOT></tleParameters></data></segment></body></omm>
<omm id="CCSDS_OMM_VERS" version="2.0">
<header><CREATION_DATE/><ORIGINATOR/></header><body><segment><metadata><OBJECT_NAME>STARLINK-1545</OBJECT_NAME><OBJECT_ID>2020-057AR</OBJECT_ID><CENTER_NAME>EARTH</CENTER_NAME><REF_FRAME>TEME</REF_FRAME><TIME_SYSTEM>UTC</TIME_SYSTEM><MEAN_ELEMENT_THEORY>SGP4</MEAN_ELEMENT_THEORY></metadata><data><meanElements><EPOCH>2020-09-09T12:00:00.999648</EPOCH><MEAN_MOTION>15.66248654</MEAN_MOTION><ECCENTRICITY>.0001489</ECCENTRICITY><INCLINATION>52.9997</INCLINATION><RA_OF_ASC_NODE>332.4080</RA_OF_ASC_NODE><ARG_OF_PERICENTER>57.3913</ARG_OF_PERICENTER><MEAN_ANOMALY>217.3226</MEAN_ANOMALY></meanElements><tleParameters><EPHEMERIS_TYPE>0</EPHEMERIS_TYPE><CLASSIFICATION_TYPE>U</CLASSIFICATION_TYPE><NORAD_CAT_ID>46156</NORAD_CAT_ID><ELEMENT_SET_NO>999</ELEMENT_SET_NO><REV_AT_EPOCH>412</REV_AT_EPOCH><BSTAR>-.31299E-4</BSTAR><MEAN_MOTION_DOT>-3.852E-5</MEAN_MOTION_DOT><MEAN_MOTION_DDOT>0</MEAN_MOTION_DDOT></tleParameters></data></segment></body></omm>
<omm id="CCSDS_OMM_VERS" version="2.0">
<header><CREATION_DATE/><ORIGINATOR/></header><body><segment><metadata><OBJECT_NAME>STARLINK-1587</OBJECT_NAME><OBJECT_ID>2020-057AS</OBJECT_ID><CENTER_NAME>EARTH</CENTER_NAME><REF_FRAME>TEME</REF_FRAME><TIME_SYSTEM>UTC</TIME_SYSTEM><MEAN_ELEMENT_THEORY>SGP4</MEAN_ELEMENT_THEORY></metadata><data><meanElements><EPOCH>2020-09-09T12:00:00.999648</EPOCH><MEAN_MOTION>15.66267678</MEAN_MOTION><ECCENTRICITY>.0001329</ECCENTRICITY><INCLINATION>52.9993</INCLINATION><RA_OF_ASC_NODE>332.3375</RA_OF_ASC_NODE><ARG_OF_PERICENTER>38.8440</ARG_OF_PERICENTER><MEAN_ANOMALY>269.8273</MEAN_ANOMALY></meanElements><tleParameters><EPHEMERIS_TYPE>0</EPHEMERIS_TYPE><CLASSIFICATION_TYPE>U</CLASSIFICATION_TYPE><NORAD_CAT_ID>46157</NORAD_CAT_ID><ELEMENT_SET_NO>999</ELEMENT_SET_NO><REV_AT_EPOCH>412</REV_AT_EPOCH><BSTAR>-.29138E-4</BSTAR><MEAN_MOTION_DOT>-3.627E-5</MEAN_MOTION_DOT><MEAN_MOTION_DDOT>0</MEAN_MOTION_DDOT></tleParameters></data></segment></body></omm>
<omm id="CCSDS_OMM_VERS" version="2.0">
<header><CREATION_DATE/><ORIGINATOR/></header><body><segment><metadata><OBJECT_NAME>STARLINK-1589</OBJECT_NAME><OBJECT_ID>2020-057AT</OBJECT_ID><CENTER_NAME>EARTH</CENTER_NAME><REF_FRAME>TEME</REF_FRAME><TIME_SYSTEM>UTC</TIME_SYSTEM><MEAN_ELEMENT_THEORY>SGP4</MEAN_ELEMENT_THEORY></metadata><data><meanElements><EPOCH>2020-09-09T06:00:00.999648</EPOCH><MEAN_MOTION>15.62328449</MEAN_MOTION><ECCENTRICITY>.0001517</ECCENTRICITY><INCLINATION>53.0013</INCLINATION><RA_OF_ASC_NODE>333.9926</RA_OF_ASC_NODE><ARG_OF_PERICENTER>53.1982</ARG_OF_PERICENTER><MEAN_ANOMALY>90.6490</MEAN_ANOMALY></meanElements><tleParameters><EPHEMERIS_TYPE>0</EPHEMERIS_TYPE><CLASSIFICATION_TYPE>U</CLASSIFICATION_TYPE><NORAD_CAT_ID>46158</NORAD_CAT_ID><ELEMENT_SET_NO>999</ELEMENT_SET_NO><REV_AT_EPOCH>177</REV_AT_EPOCH><BSTAR>.15015E-2</BSTAR><MEAN_MOTION_DOT>1.37001E-3</MEAN_MOTION_DOT><MEAN_MOTION_DDOT>0</MEAN_MOTION_DDOT></tleParameters></data></segment></body></omm>
<omm id="CCSDS_OMM_VERS" version="2.0">
<header><CREATION_DATE/><ORIGINATOR/></header><body><segment><metadata><OBJECT_NAME>STARLINK-1595</OBJECT_NAME><OBJECT_ID>2020-057AU</OBJECT_ID><CENTER_NAME>EARTH</CENTER_NAME><REF_FRAME>TEME</REF_FRAME><TIME_SYSTEM>UTC</TIME_SYSTEM><MEAN_ELEMENT_THEORY>SGP4</MEAN_ELEMENT_THEORY></metadata><data><meanElements><EPOCH>2020-09-09T06:00:00.999648</EPOCH><MEAN_MOTION>15.61133711</MEAN_MOTION><ECCENTRICITY>.0001078</ECCENTRICITY><INCLINATION>53.0028</INCLINATION><RA_OF_ASC_NODE>334.0188</RA_OF_ASC_NODE><ARG_OF_PERICENTER>6.4343</ARG_OF_PERICENTER><MEAN_ANOMALY>122.7212</MEAN_ANOMALY></meanElements><tleParameters><EPHEMERIS_TYPE>0</EPHEMERIS_TYPE><CLASSIFICATION_TYPE>U</CLASSIFICATION_TYPE><NORAD_CAT_ID>46159</NORAD_CAT_ID><ELEMENT_SET_NO>999</ELEMENT_SET_NO><REV_AT_EPOCH>177</REV_AT_EPOCH><BSTAR>-.13840E-1</BSTAR><MEAN_MOTION_DOT>-1.081724E-2</MEAN_MOTION_DOT><MEAN_MOTION_DDOT>0</MEAN_MOTION_DDOT></tleParameters></data></segment></body></omm>

</ndm>
